; Parameters:
  ; V* = 0.15
  ; H* = 9
  ; Edot (mm/min) = 35
  ; deltaZ (mm) = 1.16

  ; Calculated Parameters:
  ; ZOffset (mm) = 3.600000
  ; printHeadSpeed (mm/min) = 100.488281

    M201 X9000 Y9000 Z500 E10000
    M203 X500 Y500 Z12 E120
    M204 P2000 R1500 T2000
    M205 X10.00 Y10.00 Z0.20 E4.50
    M205 S0 T0
    M107
    M862.1 P0.4

    M104 S230
    M190 S60
    M109 S230
    M862.3 P "MK3S"

    G28
    G92 X0 Y0
    M420 S1

    G21
    G90
    M83            ; **relative extrusion**
    G92 E0
    M900 K0.05
    M900 K30

    G1 Z0.200 F2400
    M204 S1000
    G0 F2880 X5.000 Y5.000 Z0.100
    M205 X8 Y8
    G1 Z0.300 F3000

    ; ---- Outline start ----
    G0 X41.338 Y70.849 F6000
G1 X39.752 Y72.476 E0.3408 F100.488
G1 X40.023 Y73.279 E0.1271 F100.488
G1 X43.619 Y73.350 E0.5395 F100.488
G1 X55.339 Y70.359 E1.8143 F100.488
G1 X61.323 Y69.829 E0.9011 F100.488
G1 X73.476 Y70.642 E1.8270 F100.488
G1 X82.209 Y72.115 E1.3285 F100.488
G1 X93.841 Y75.129 E1.8024 F100.488
G1 X123.607 Y86.526 E4.7810 F100.488
G1 X142.374 Y92.048 E2.9344 F100.488
G1 X157.503 Y94.825 E2.3073 F100.488
G1 X180.982 Y96.168 E3.5276 F100.488
G1 X185.647 Y96.969 E0.7100 F100.488
G1 X187.519 Y97.824 E0.3087 F100.488
G1 X188.747 Y99.344 E0.2931 F100.488
G1 X191.163 Y99.922 E0.3726 F100.488
G1 X192.783 Y100.892 E0.2832 F100.488
G1 X194.372 Y105.011 E0.6622 F100.488
G1 X192.783 Y109.121 E0.6610 F100.488
G1 X191.120 Y110.099 E0.2894 F100.488
G1 X188.725 Y110.663 E0.3691 F100.488
G1 X187.644 Y112.056 E0.2645 F100.488
G1 X185.282 Y113.169 E0.3917 F100.488
G1 X180.193 Y113.902 E0.7712 F100.488
G1 X158.957 Y114.982 E3.1895 F100.488
G1 X141.549 Y118.157 E2.6543 F100.488
G1 X124.984 Y123.009 E2.5891 F100.488
G1 X94.836 Y134.547 E4.8421 F100.488
G1 X83.086 Y137.705 E1.8250 F100.488
G1 X73.666 Y139.340 E1.4341 F100.488
G1 X62.768 Y140.172 E1.6395 F100.488
G1 X54.532 Y139.476 E1.2398 F100.488
G1 X42.742 Y136.514 E1.8235 F100.488
G1 X40.170 Y136.624 E0.3862 F100.488
G1 X39.600 Y137.124 E0.1137 F100.488
G1 X40.788 Y138.733 E0.3000 F100.488
G1 X43.995 Y140.722 E0.5661 F100.488
G1 X52.856 Y143.694 E1.4019 F100.488
G1 X61.951 Y144.624 E1.3714 F100.488
G1 X72.853 Y144.514 E1.6354 F100.488
G1 X82.358 Y143.918 E1.4286 F100.488
G1 X92.773 Y142.438 E1.5779 F100.488
G1 X103.119 Y139.565 E1.6106 F100.488
G1 X128.145 Y130.070 E4.0150 F100.488
G1 X148.947 Y122.964 E3.2973 F100.488
G1 X163.401 Y119.595 E2.2262 F100.488
G1 X173.055 Y118.838 E1.4525 F100.488
G1 X195.879 Y119.669 E3.4259 F100.488
G1 X204.662 Y118.582 E1.3275 F100.488
G1 X208.840 Y116.903 E0.6754 F100.488
G1 X212.971 Y113.853 E0.7702 F100.488
G1 X215.679 Y110.436 E0.6540 F100.488
G1 X217.185 Y106.527 E0.6284 F100.488
G1 X217.344 Y104.399 E0.3201 F100.488
G1 X216.831 Y102.052 E0.3604 F100.488
G1 X214.629 Y98.012 E0.6902 F100.488
G1 X209.878 Y93.736 E0.9588 F100.488
G1 X205.419 Y91.639 E0.7391 F100.488
G1 X200.764 Y90.730 E0.7114 F100.488
G1 X195.047 Y90.291 E0.8601 F100.488
G1 X169.223 Y91.052 E3.8753 F100.488
G1 X159.400 Y89.709 E1.4872 F100.488
G1 X144.949 Y85.754 E2.2474 F100.488
G1 X126.770 Y79.450 E2.8862 F100.488
G1 X105.429 Y71.257 E3.4289 F100.488
G1 X92.978 Y67.598 E1.9466 F100.488
G1 X79.086 Y65.795 E2.1013 F100.488
G1 X59.810 Y65.472 E2.8918 F100.488
G1 X51.208 Y66.687 E1.3031 F100.488
G1 X46.210 Y68.279 E0.7868 F100.488
G1 X42.315 Y70.225 E0.6531 F100.488
G1 X41.338 Y70.849 E0.1739 F100.488

    ; ---- End outline ----
    G1 Z5.00 F3000
    M104 S0
    M140 S0
    M84