M73 P0 R0 
M201 X9000 Y9000 Z500 E10000 ; sets maximum accelerations, mm/sec^2 
M203 X500 Y500 Z12 E120 ; sets maximum feedrates, mm/sec 
M204 P2000 R1500 T2000 ; sets acceleration (P, T) and retract acceleration (R), mm/sec^2 
M205 X10.00 Y10.00 Z0.20 E4.50 ; sets the jerk limits, mm/sec 
M205 S0 T0 ; sets the minimum extruding and travel feed rate, mm/sec 
M107 ; turns off fan 
M862.3 P "MK3S" ; printer model check 
M862.1 P0.4 ; nozzle diameter check 
G90 ; use absolute coordinates 
M83  ; extruder relative mode 

M104 S240 ; set extruder temp 
M140 S50 ; set bed temp 
M190 S50 ; wait for bed temp 
M109 S240 ; wait for extruder temp 

G28 W ; home all without mesh bed level 
G80 ; mesh bed leveling 
G1 Y-3.0 F1000.0 ; go outside print area 
G92 E0.0 
G1 X60.0 E9.0 F1000 ; intro line 
G1 X100.0 E12.5 F1000 ; intro line 
G92 E0.0 

G21 ; set units to millimeters 
G90 ; use absolute coordinates 
M83 ; use relative distances for extrusion 
M900 K0.05 ; Filament gcode LA 1.5 
M900 K30 ; Filament gcode LA 1.0 
G92 E0.0 
G1 Z0.200 F10800.000 
M204 S1000 

M221 S100 ; Set flow percentage


G1 X112.50 Y092.50 Z003.60 E000.00 F5000;  
G1 X137.50 Y092.50 Z003.60 E008.65 F0101;  
G1 X137.50 Y094.20 Z003.60 E000.59 F0101;  
G1 X112.50 Y094.20 Z003.60 E008.65 F0101;  
G1 X112.50 Y095.90 Z003.60 E000.59 F0101;  
G1 X137.50 Y095.90 Z003.60 E008.65 F0101; moving 25 at F101, but extruding 8.65
G1 X137.50 Y097.60 Z003.60 E000.59 F0101;  
G1 X112.50 Y097.60 Z003.60 E008.65 F0101;  
G1 X112.50 Y099.30 Z003.60 E000.59 F0101;  
G1 X137.50 Y099.30 Z003.60 E008.65 F0101;  
G1 X137.50 Y101.00 Z003.60 E000.59 F0101;  
G1 X112.50 Y101.00 Z003.60 E008.65 F0101;  
G1 X112.50 Y102.70 Z003.60 E000.59 F0101;  
G1 X137.50 Y102.70 Z003.60 E008.65 F0101;  
G1 X137.50 Y104.40 Z003.60 E000.59 F0101;  
G1 X112.50 Y104.40 Z003.60 E008.65 F0101;  
G1 X112.50 Y106.10 Z003.60 E000.59 F0101;  
G1 X137.50 Y106.10 Z003.60 E008.65 F0101;  
G1 X137.50 Y107.80 Z003.60 E000.59 F0101;  
G1 X112.50 Y107.80 Z003.60 E008.65 F0101;  
G1 X112.50 Y109.50 Z003.60 E000.59 F0101;  
G1 X137.50 Y109.50 Z003.60 E008.65 F0101;  
G1 X137.50 Y111.20 Z003.60 E000.59 F0101;  
G1 X112.50 Y111.20 Z003.60 E008.65 F0101;  
G1 X112.50 Y112.90 Z003.60 E000.59 F0101;  
G1 X137.50 Y112.90 Z003.60 E008.65 F0101;  
G1 X137.50 Y114.60 Z003.60 E000.59 F0101;  
G1 X112.50 Y114.60 Z003.60 E008.65 F0101;  
G1 X112.50 Y116.30 Z003.60 E000.59 F0101;  
G1 X137.50 Y116.30 Z003.60 E008.65 F0101;  
G1 X137.50 Y118.00 Z003.60 E000.59 F0101;  
G1 X112.25 Y117.75 Z004.76 E008.74 F0101;  
G1 X112.25 Y092.75 Z004.76 E008.65 F0101;  
G1 X113.95 Y092.75 Z004.76 E000.59 F0101;  
G1 X113.95 Y117.75 Z004.76 E008.65 F0101;  
G1 X115.65 Y117.75 Z004.76 E000.59 F0101;  
G1 X115.65 Y092.75 Z004.76 E008.65 F0101;  
G1 X117.35 Y092.75 Z004.76 E000.59 F0101;  
G1 X117.35 Y117.75 Z004.76 E008.65 F0101;  
G1 X119.05 Y117.75 Z004.76 E000.59 F0101;  
G1 X119.05 Y092.75 Z004.76 E008.65 F0101;  
G1 X120.75 Y092.75 Z004.76 E000.59 F0101;  
G1 X120.75 Y117.75 Z004.76 E008.65 F0101;  
G1 X122.45 Y117.75 Z004.76 E000.59 F0101;  
G1 X122.45 Y092.75 Z004.76 E008.65 F0101;  
G1 X124.15 Y092.75 Z004.76 E000.59 F0101;  
G1 X124.15 Y117.75 Z004.76 E008.65 F0101;  
G1 X125.85 Y117.75 Z004.76 E000.59 F0101;  
G1 X125.85 Y092.75 Z004.76 E008.65 F0101;  
G1 X127.55 Y092.75 Z004.76 E000.59 F0101;  
G1 X127.55 Y117.75 Z004.76 E008.65 F0101;  
G1 X129.25 Y117.75 Z004.76 E000.59 F0101;  
G1 X129.25 Y092.75 Z004.76 E008.65 F0101;  
G1 X130.95 Y092.75 Z004.76 E000.59 F0101;  
G1 X130.95 Y117.75 Z004.76 E008.65 F0101;  
G1 X132.65 Y117.75 Z004.76 E000.59 F0101;  
G1 X132.65 Y092.75 Z004.76 E008.65 F0101;  
G1 X134.35 Y092.75 Z004.76 E000.59 F0101;  
G1 X134.35 Y117.75 Z004.76 E008.65 F0101;  
G1 X136.05 Y117.75 Z004.76 E000.59 F0101;  
G1 X136.05 Y092.75 Z004.76 E008.65 F0101;  
G1 X137.75 Y092.75 Z004.76 E000.59 F0101;  
G1 X137.50 Y118.00 Z005.92 E008.74 F0101;  
G1 X112.50 Y118.00 Z005.92 E008.65 F0101;  
G1 X112.50 Y116.30 Z005.92 E000.59 F0101;  
G1 X137.50 Y116.30 Z005.92 E008.65 F0101;  
G1 X137.50 Y114.60 Z005.92 E000.59 F0101;  
G1 X112.50 Y114.60 Z005.92 E008.65 F0101;  
G1 X112.50 Y112.90 Z005.92 E000.59 F0101;  
G1 X137.50 Y112.90 Z005.92 E008.65 F0101;  
G1 X137.50 Y111.20 Z005.92 E000.59 F0101;  
G1 X112.50 Y111.20 Z005.92 E008.65 F0101;  
G1 X112.50 Y109.50 Z005.92 E000.59 F0101;  
G1 X137.50 Y109.50 Z005.92 E008.65 F0101;  
G1 X137.50 Y107.80 Z005.92 E000.59 F0101;  
G1 X112.50 Y107.80 Z005.92 E008.65 F0101;  
G1 X112.50 Y106.10 Z005.92 E000.59 F0101;  
G1 X137.50 Y106.10 Z005.92 E008.65 F0101;  
G1 X137.50 Y104.40 Z005.92 E000.59 F0101;  
G1 X112.50 Y104.40 Z005.92 E008.65 F0101;  
G1 X112.50 Y102.70 Z005.92 E000.59 F0101;  
G1 X137.50 Y102.70 Z005.92 E008.65 F0101;  
G1 X137.50 Y101.00 Z005.92 E000.59 F0101;  
G1 X112.50 Y101.00 Z005.92 E008.65 F0101;  
G1 X112.50 Y099.30 Z005.92 E000.59 F0101;  
G1 X137.50 Y099.30 Z005.92 E008.65 F0101;  
G1 X137.50 Y097.60 Z005.92 E000.59 F0101;  
G1 X112.50 Y097.60 Z005.92 E008.65 F0101;  
G1 X112.50 Y095.90 Z005.92 E000.59 F0101;  
G1 X137.50 Y095.90 Z005.92 E008.65 F0101;  
G1 X137.50 Y094.20 Z005.92 E000.59 F0101;  
G1 X112.50 Y094.20 Z005.92 E008.65 F0101;  
G1 X112.50 Y092.50 Z005.92 E000.59 F0101;  
G1 X137.75 Y092.75 Z007.08 E008.74 F0101;  
G1 X137.75 Y117.75 Z007.08 E008.65 F0101;  
G1 X136.05 Y117.75 Z007.08 E000.59 F0101;  
G1 X136.05 Y092.75 Z007.08 E008.65 F0101;  
G1 X134.35 Y092.75 Z007.08 E000.59 F0101;  
G1 X134.35 Y117.75 Z007.08 E008.65 F0101;  
G1 X132.65 Y117.75 Z007.08 E000.59 F0101;  
G1 X132.65 Y092.75 Z007.08 E008.65 F0101;  
G1 X130.95 Y092.75 Z007.08 E000.59 F0101;  
G1 X130.95 Y117.75 Z007.08 E008.65 F0101;  
G1 X129.25 Y117.75 Z007.08 E000.59 F0101;  
G1 X129.25 Y092.75 Z007.08 E008.65 F0101;  
G1 X127.55 Y092.75 Z007.08 E000.59 F0101;  
G1 X127.55 Y117.75 Z007.08 E008.65 F0101;  
G1 X125.85 Y117.75 Z007.08 E000.59 F0101;  
G1 X125.85 Y092.75 Z007.08 E008.65 F0101;  
G1 X124.15 Y092.75 Z007.08 E000.59 F0101;  
G1 X124.15 Y117.75 Z007.08 E008.65 F0101;  
G1 X122.45 Y117.75 Z007.08 E000.59 F0101;  
G1 X122.45 Y092.75 Z007.08 E008.65 F0101;  
G1 X120.75 Y092.75 Z007.08 E000.59 F0101;  
G1 X120.75 Y117.75 Z007.08 E008.65 F0101;  
G1 X119.05 Y117.75 Z007.08 E000.59 F0101;  
G1 X119.05 Y092.75 Z007.08 E008.65 F0101;  
G1 X117.35 Y092.75 Z007.08 E000.59 F0101;  
G1 X117.35 Y117.75 Z007.08 E008.65 F0101;  
G1 X115.65 Y117.75 Z007.08 E000.59 F0101;  
G1 X115.65 Y092.75 Z007.08 E008.65 F0101;  
G1 X113.95 Y092.75 Z007.08 E000.59 F0101;  
G1 X113.95 Y117.75 Z007.08 E008.65 F0101;  
G1 X112.25 Y117.75 Z007.08 E000.59 F0101;  
G1 X112.50 Y092.50 Z008.24 E008.74 F0101;  
G1 X137.50 Y092.50 Z008.24 E008.65 F0101;  
G1 X137.50 Y094.20 Z008.24 E000.59 F0101;  
G1 X112.50 Y094.20 Z008.24 E008.65 F0101;  
G1 X112.50 Y095.90 Z008.24 E000.59 F0101;  
G1 X137.50 Y095.90 Z008.24 E008.65 F0101;  
G1 X137.50 Y097.60 Z008.24 E000.59 F0101;  
G1 X112.50 Y097.60 Z008.24 E008.65 F0101;  
G1 X112.50 Y099.30 Z008.24 E000.59 F0101;  
G1 X137.50 Y099.30 Z008.24 E008.65 F0101;  
G1 X137.50 Y101.00 Z008.24 E000.59 F0101;  
G1 X112.50 Y101.00 Z008.24 E008.65 F0101;  
G1 X112.50 Y102.70 Z008.24 E000.59 F0101;  
G1 X137.50 Y102.70 Z008.24 E008.65 F0101;  
G1 X137.50 Y104.40 Z008.24 E000.59 F0101;  
G1 X112.50 Y104.40 Z008.24 E008.65 F0101;  
G1 X112.50 Y106.10 Z008.24 E000.59 F0101;  
G1 X137.50 Y106.10 Z008.24 E008.65 F0101;  
G1 X137.50 Y107.80 Z008.24 E000.59 F0101;  
G1 X112.50 Y107.80 Z008.24 E008.65 F0101;  
G1 X112.50 Y109.50 Z008.24 E000.59 F0101;  
G1 X137.50 Y109.50 Z008.24 E008.65 F0101;  
G1 X137.50 Y111.20 Z008.24 E000.59 F0101;  
G1 X112.50 Y111.20 Z008.24 E008.65 F0101;  
G1 X112.50 Y112.90 Z008.24 E000.59 F0101;  
G1 X137.50 Y112.90 Z008.24 E008.65 F0101;  
G1 X137.50 Y114.60 Z008.24 E000.59 F0101;  
G1 X112.50 Y114.60 Z008.24 E008.65 F0101;  
G1 X112.50 Y116.30 Z008.24 E000.59 F0101;  
G1 X137.50 Y116.30 Z008.24 E008.65 F0101;  
G1 X137.50 Y118.00 Z008.24 E000.59 F0101;  
G1 X112.25 Y117.75 Z009.40 E008.74 F0101;  
G1 X112.25 Y092.75 Z009.40 E008.65 F0101;  
G1 X113.95 Y092.75 Z009.40 E000.59 F0101;  
G1 X113.95 Y117.75 Z009.40 E008.65 F0101;  
G1 X115.65 Y117.75 Z009.40 E000.59 F0101;  
G1 X115.65 Y092.75 Z009.40 E008.65 F0101;  
G1 X117.35 Y092.75 Z009.40 E000.59 F0101;  
G1 X117.35 Y117.75 Z009.40 E008.65 F0101;  
G1 X119.05 Y117.75 Z009.40 E000.59 F0101;  
G1 X119.05 Y092.75 Z009.40 E008.65 F0101;  
G1 X120.75 Y092.75 Z009.40 E000.59 F0101;  
G1 X120.75 Y117.75 Z009.40 E008.65 F0101;  
G1 X122.45 Y117.75 Z009.40 E000.59 F0101;  
G1 X122.45 Y092.75 Z009.40 E008.65 F0101;  
G1 X124.15 Y092.75 Z009.40 E000.59 F0101;  
G1 X124.15 Y117.75 Z009.40 E008.65 F0101;  
G1 X125.85 Y117.75 Z009.40 E000.59 F0101;  
G1 X125.85 Y092.75 Z009.40 E008.65 F0101;  
G1 X127.55 Y092.75 Z009.40 E000.59 F0101;  
G1 X127.55 Y117.75 Z009.40 E008.65 F0101;  
G1 X129.25 Y117.75 Z009.40 E000.59 F0101;  
G1 X129.25 Y092.75 Z009.40 E008.65 F0101;  
G1 X130.95 Y092.75 Z009.40 E000.59 F0101;  
G1 X130.95 Y117.75 Z009.40 E008.65 F0101;  
G1 X132.65 Y117.75 Z009.40 E000.59 F0101;  
G1 X132.65 Y092.75 Z009.40 E008.65 F0101;  
G1 X134.35 Y092.75 Z009.40 E000.59 F0101;  
G1 X134.35 Y117.75 Z009.40 E008.65 F0101;  
G1 X136.05 Y117.75 Z009.40 E000.59 F0101;  
G1 X136.05 Y092.75 Z009.40 E008.65 F0101;  
G1 X137.75 Y092.75 Z009.40 E000.59 F0101;  
G1 X137.50 Y118.00 Z010.56 E008.74 F0101;  
G1 X112.50 Y118.00 Z010.56 E008.65 F0101;  
G1 X112.50 Y116.30 Z010.56 E000.59 F0101;  
G1 X137.50 Y116.30 Z010.56 E008.65 F0101;  
G1 X137.50 Y114.60 Z010.56 E000.59 F0101;  
G1 X112.50 Y114.60 Z010.56 E008.65 F0101;  
G1 X112.50 Y112.90 Z010.56 E000.59 F0101;  
G1 X137.50 Y112.90 Z010.56 E008.65 F0101;  
G1 X137.50 Y111.20 Z010.56 E000.59 F0101;  
G1 X112.50 Y111.20 Z010.56 E008.65 F0101;  
G1 X112.50 Y109.50 Z010.56 E000.59 F0101;  
G1 X137.50 Y109.50 Z010.56 E008.65 F0101;  
G1 X137.50 Y107.80 Z010.56 E000.59 F0101;  
G1 X112.50 Y107.80 Z010.56 E008.65 F0101;  
G1 X112.50 Y106.10 Z010.56 E000.59 F0101;  
G1 X137.50 Y106.10 Z010.56 E008.65 F0101;  
G1 X137.50 Y104.40 Z010.56 E000.59 F0101;  
G1 X112.50 Y104.40 Z010.56 E008.65 F0101;  
G1 X112.50 Y102.70 Z010.56 E000.59 F0101;  
G1 X137.50 Y102.70 Z010.56 E008.65 F0101;  
G1 X137.50 Y101.00 Z010.56 E000.59 F0101;  
G1 X112.50 Y101.00 Z010.56 E008.65 F0101;  
G1 X112.50 Y099.30 Z010.56 E000.59 F0101;  
G1 X137.50 Y099.30 Z010.56 E008.65 F0101;  
G1 X137.50 Y097.60 Z010.56 E000.59 F0101;  
G1 X112.50 Y097.60 Z010.56 E008.65 F0101;  
G1 X112.50 Y095.90 Z010.56 E000.59 F0101;  
G1 X137.50 Y095.90 Z010.56 E008.65 F0101;  
G1 X137.50 Y094.20 Z010.56 E000.59 F0101;  
G1 X112.50 Y094.20 Z010.56 E008.65 F0101;  
G1 X112.50 Y092.50 Z010.56 E000.59 F0101;  
G1 X137.75 Y092.75 Z011.72 E008.74 F0101;  
G1 X137.75 Y117.75 Z011.72 E008.65 F0101;  
G1 X136.05 Y117.75 Z011.72 E000.59 F0101;  
G1 X136.05 Y092.75 Z011.72 E008.65 F0101;  
G1 X134.35 Y092.75 Z011.72 E000.59 F0101;  
G1 X134.35 Y117.75 Z011.72 E008.65 F0101;  
G1 X132.65 Y117.75 Z011.72 E000.59 F0101;  
G1 X132.65 Y092.75 Z011.72 E008.65 F0101;  
G1 X130.95 Y092.75 Z011.72 E000.59 F0101;  
G1 X130.95 Y117.75 Z011.72 E008.65 F0101;  
G1 X129.25 Y117.75 Z011.72 E000.59 F0101;  
G1 X129.25 Y092.75 Z011.72 E008.65 F0101;  
G1 X127.55 Y092.75 Z011.72 E000.59 F0101;  
G1 X127.55 Y117.75 Z011.72 E008.65 F0101;  
G1 X125.85 Y117.75 Z011.72 E000.59 F0101;  
G1 X125.85 Y092.75 Z011.72 E008.65 F0101;  
G1 X124.15 Y092.75 Z011.72 E000.59 F0101;  
G1 X124.15 Y117.75 Z011.72 E008.65 F0101;  
G1 X122.45 Y117.75 Z011.72 E000.59 F0101;  
G1 X122.45 Y092.75 Z011.72 E008.65 F0101;  
G1 X120.75 Y092.75 Z011.72 E000.59 F0101;  
G1 X120.75 Y117.75 Z011.72 E008.65 F0101;  
G1 X119.05 Y117.75 Z011.72 E000.59 F0101;  
G1 X119.05 Y092.75 Z011.72 E008.65 F0101;  
G1 X117.35 Y092.75 Z011.72 E000.59 F0101;  
G1 X117.35 Y117.75 Z011.72 E008.65 F0101;  
G1 X115.65 Y117.75 Z011.72 E000.59 F0101;  
G1 X115.65 Y092.75 Z011.72 E008.65 F0101;  
G1 X113.95 Y092.75 Z011.72 E000.59 F0101;  
G1 X113.95 Y117.75 Z011.72 E008.65 F0101;  
G1 X112.25 Y117.75 Z011.72 E000.59 F0101;  
G1 X112.50 Y092.50 Z012.88 E008.74 F0101;  
G1 X137.50 Y092.50 Z012.88 E008.65 F0101;  
G1 X137.50 Y094.20 Z012.88 E000.59 F0101;  
G1 X112.50 Y094.20 Z012.88 E008.65 F0101;  
G1 X112.50 Y095.90 Z012.88 E000.59 F0101;  
G1 X137.50 Y095.90 Z012.88 E008.65 F0101;  
G1 X137.50 Y097.60 Z012.88 E000.59 F0101;  
G1 X112.50 Y097.60 Z012.88 E008.65 F0101;  
G1 X112.50 Y099.30 Z012.88 E000.59 F0101;  
G1 X137.50 Y099.30 Z012.88 E008.65 F0101;  
G1 X137.50 Y101.00 Z012.88 E000.59 F0101;  
G1 X112.50 Y101.00 Z012.88 E008.65 F0101;  
G1 X112.50 Y102.70 Z012.88 E000.59 F0101;  
G1 X137.50 Y102.70 Z012.88 E008.65 F0101;  
G1 X137.50 Y104.40 Z012.88 E000.59 F0101;  
G1 X112.50 Y104.40 Z012.88 E008.65 F0101;  
G1 X112.50 Y106.10 Z012.88 E000.59 F0101;  
G1 X137.50 Y106.10 Z012.88 E008.65 F0101;  
G1 X137.50 Y107.80 Z012.88 E000.59 F0101;  
G1 X112.50 Y107.80 Z012.88 E008.65 F0101;  
G1 X112.50 Y109.50 Z012.88 E000.59 F0101;  
G1 X137.50 Y109.50 Z012.88 E008.65 F0101;  
G1 X137.50 Y111.20 Z012.88 E000.59 F0101;  
G1 X112.50 Y111.20 Z012.88 E008.65 F0101;  
G1 X112.50 Y112.90 Z012.88 E000.59 F0101;  
G1 X137.50 Y112.90 Z012.88 E008.65 F0101;  
G1 X137.50 Y114.60 Z012.88 E000.59 F0101;  
G1 X112.50 Y114.60 Z012.88 E008.65 F0101;  
G1 X112.50 Y116.30 Z012.88 E000.59 F0101;  
G1 X137.50 Y116.30 Z012.88 E008.65 F0101;  
G1 X137.50 Y118.00 Z012.88 E000.59 F0101;  
G1 X112.25 Y117.75 Z014.04 E008.74 F0101;  
G1 X112.25 Y092.75 Z014.04 E008.65 F0101;  
G1 X113.95 Y092.75 Z014.04 E000.59 F0101;  
G1 X113.95 Y117.75 Z014.04 E008.65 F0101;  
G1 X115.65 Y117.75 Z014.04 E000.59 F0101;  
G1 X115.65 Y092.75 Z014.04 E008.65 F0101;  
G1 X117.35 Y092.75 Z014.04 E000.59 F0101;  
G1 X117.35 Y117.75 Z014.04 E008.65 F0101;  
G1 X119.05 Y117.75 Z014.04 E000.59 F0101;  
G1 X119.05 Y092.75 Z014.04 E008.65 F0101;  
G1 X120.75 Y092.75 Z014.04 E000.59 F0101;  
G1 X120.75 Y117.75 Z014.04 E008.65 F0101;  
G1 X122.45 Y117.75 Z014.04 E000.59 F0101;  
G1 X122.45 Y092.75 Z014.04 E008.65 F0101;  
G1 X124.15 Y092.75 Z014.04 E000.59 F0101;  
G1 X124.15 Y117.75 Z014.04 E008.65 F0101;  
G1 X125.85 Y117.75 Z014.04 E000.59 F0101;  
G1 X125.85 Y092.75 Z014.04 E008.65 F0101;  
G1 X127.55 Y092.75 Z014.04 E000.59 F0101;  
G1 X127.55 Y117.75 Z014.04 E008.65 F0101;  
G1 X129.25 Y117.75 Z014.04 E000.59 F0101;  
G1 X129.25 Y092.75 Z014.04 E008.65 F0101;  
G1 X130.95 Y092.75 Z014.04 E000.59 F0101;  
G1 X130.95 Y117.75 Z014.04 E008.65 F0101;  
G1 X132.65 Y117.75 Z014.04 E000.59 F0101;  
G1 X132.65 Y092.75 Z014.04 E008.65 F0101;  
G1 X134.35 Y092.75 Z014.04 E000.59 F0101;  
G1 X134.35 Y117.75 Z014.04 E008.65 F0101;  
G1 X136.05 Y117.75 Z014.04 E000.59 F0101;  
G1 X136.05 Y092.75 Z014.04 E008.65 F0101;  
G1 X137.75 Y092.75 Z014.04 E000.59 F0101;  
G1 X137.50 Y118.00 Z015.20 E008.74 F0101;  
G1 X112.50 Y118.00 Z015.20 E008.65 F0101;  
G1 X112.50 Y116.30 Z015.20 E000.59 F0101;  
G1 X137.50 Y116.30 Z015.20 E008.65 F0101;  
G1 X137.50 Y114.60 Z015.20 E000.59 F0101;  
G1 X112.50 Y114.60 Z015.20 E008.65 F0101;  
G1 X112.50 Y112.90 Z015.20 E000.59 F0101;  
G1 X137.50 Y112.90 Z015.20 E008.65 F0101;  
G1 X137.50 Y111.20 Z015.20 E000.59 F0101;  
G1 X112.50 Y111.20 Z015.20 E008.65 F0101;  
G1 X112.50 Y109.50 Z015.20 E000.59 F0101;  
G1 X137.50 Y109.50 Z015.20 E008.65 F0101;  
G1 X137.50 Y107.80 Z015.20 E000.59 F0101;  
G1 X112.50 Y107.80 Z015.20 E008.65 F0101;  
G1 X112.50 Y106.10 Z015.20 E000.59 F0101;  
G1 X137.50 Y106.10 Z015.20 E008.65 F0101;  
G1 X137.50 Y104.40 Z015.20 E000.59 F0101;  
G1 X112.50 Y104.40 Z015.20 E008.65 F0101;  
G1 X112.50 Y102.70 Z015.20 E000.59 F0101;  
G1 X137.50 Y102.70 Z015.20 E008.65 F0101;  
G1 X137.50 Y101.00 Z015.20 E000.59 F0101;  
G1 X112.50 Y101.00 Z015.20 E008.65 F0101;  
G1 X112.50 Y099.30 Z015.20 E000.59 F0101;  
G1 X137.50 Y099.30 Z015.20 E008.65 F0101;  
G1 X137.50 Y097.60 Z015.20 E000.59 F0101;  
G1 X112.50 Y097.60 Z015.20 E008.65 F0101;  
G1 X112.50 Y095.90 Z015.20 E000.59 F0101;  
G1 X137.50 Y095.90 Z015.20 E008.65 F0101;  
G1 X137.50 Y094.20 Z015.20 E000.59 F0101;  
G1 X112.50 Y094.20 Z015.20 E008.65 F0101;  
G1 X112.50 Y092.50 Z015.20 E000.59 F0101;  
G1 X137.75 Y092.75 Z016.36 E008.74 F0101;  
G1 X137.75 Y117.75 Z016.36 E008.65 F0101;  
G1 X136.05 Y117.75 Z016.36 E000.59 F0101;  
G1 X136.05 Y092.75 Z016.36 E008.65 F0101;  
G1 X134.35 Y092.75 Z016.36 E000.59 F0101;  
G1 X134.35 Y117.75 Z016.36 E008.65 F0101;  
G1 X132.65 Y117.75 Z016.36 E000.59 F0101;  
G1 X132.65 Y092.75 Z016.36 E008.65 F0101;  
G1 X130.95 Y092.75 Z016.36 E000.59 F0101;  
G1 X130.95 Y117.75 Z016.36 E008.65 F0101;  
G1 X129.25 Y117.75 Z016.36 E000.59 F0101;  
G1 X129.25 Y092.75 Z016.36 E008.65 F0101;  
G1 X127.55 Y092.75 Z016.36 E000.59 F0101;  
G1 X127.55 Y117.75 Z016.36 E008.65 F0101;  
G1 X125.85 Y117.75 Z016.36 E000.59 F0101;  
G1 X125.85 Y092.75 Z016.36 E008.65 F0101;  
G1 X124.15 Y092.75 Z016.36 E000.59 F0101;  
G1 X124.15 Y117.75 Z016.36 E008.65 F0101;  
G1 X122.45 Y117.75 Z016.36 E000.59 F0101;  
G1 X122.45 Y092.75 Z016.36 E008.65 F0101;  
G1 X120.75 Y092.75 Z016.36 E000.59 F0101;  
G1 X120.75 Y117.75 Z016.36 E008.65 F0101;  
G1 X119.05 Y117.75 Z016.36 E000.59 F0101;  
G1 X119.05 Y092.75 Z016.36 E008.65 F0101;  
G1 X117.35 Y092.75 Z016.36 E000.59 F0101;  
G1 X117.35 Y117.75 Z016.36 E008.65 F0101;  
G1 X115.65 Y117.75 Z016.36 E000.59 F0101;  
G1 X115.65 Y092.75 Z016.36 E008.65 F0101;  
G1 X113.95 Y092.75 Z016.36 E000.59 F0101;  
G1 X113.95 Y117.75 Z016.36 E008.65 F0101;  
G1 X112.25 Y117.75 Z016.36 E000.59 F0101;  
G1 X112.50 Y092.50 Z017.52 E008.74 F0101;  
G1 X137.50 Y092.50 Z017.52 E008.65 F0101;  
G1 X137.50 Y094.20 Z017.52 E000.59 F0101;  
G1 X112.50 Y094.20 Z017.52 E008.65 F0101;  
G1 X112.50 Y095.90 Z017.52 E000.59 F0101;  
G1 X137.50 Y095.90 Z017.52 E008.65 F0101;  
G1 X137.50 Y097.60 Z017.52 E000.59 F0101;  
G1 X112.50 Y097.60 Z017.52 E008.65 F0101;  
G1 X112.50 Y099.30 Z017.52 E000.59 F0101;  
G1 X137.50 Y099.30 Z017.52 E008.65 F0101;  
G1 X137.50 Y101.00 Z017.52 E000.59 F0101;  
G1 X112.50 Y101.00 Z017.52 E008.65 F0101;  
G1 X112.50 Y102.70 Z017.52 E000.59 F0101;  
G1 X137.50 Y102.70 Z017.52 E008.65 F0101;  
G1 X137.50 Y104.40 Z017.52 E000.59 F0101;  
G1 X112.50 Y104.40 Z017.52 E008.65 F0101;  
G1 X112.50 Y106.10 Z017.52 E000.59 F0101;  
G1 X137.50 Y106.10 Z017.52 E008.65 F0101;  
G1 X137.50 Y107.80 Z017.52 E000.59 F0101;  
G1 X112.50 Y107.80 Z017.52 E008.65 F0101;  
G1 X112.50 Y109.50 Z017.52 E000.59 F0101;  
G1 X137.50 Y109.50 Z017.52 E008.65 F0101;  
G1 X137.50 Y111.20 Z017.52 E000.59 F0101;  
G1 X112.50 Y111.20 Z017.52 E008.65 F0101;  
G1 X112.50 Y112.90 Z017.52 E000.59 F0101;  
G1 X137.50 Y112.90 Z017.52 E008.65 F0101;  
G1 X137.50 Y114.60 Z017.52 E000.59 F0101;  
G1 X112.50 Y114.60 Z017.52 E008.65 F0101;  
G1 X112.50 Y116.30 Z017.52 E000.59 F0101;  
G1 X137.50 Y116.30 Z017.52 E008.65 F0101;  
G1 X137.50 Y118.00 Z017.52 E000.59 F0101;  
G1 X112.25 Y117.75 Z018.68 E008.74 F0101;  
G1 X112.25 Y092.75 Z018.68 E008.65 F0101;  
G1 X113.95 Y092.75 Z018.68 E000.59 F0101;  
G1 X113.95 Y117.75 Z018.68 E008.65 F0101;  
G1 X115.65 Y117.75 Z018.68 E000.59 F0101;  
G1 X115.65 Y092.75 Z018.68 E008.65 F0101;  
G1 X117.35 Y092.75 Z018.68 E000.59 F0101;  
G1 X117.35 Y117.75 Z018.68 E008.65 F0101;  
G1 X119.05 Y117.75 Z018.68 E000.59 F0101;  
G1 X119.05 Y092.75 Z018.68 E008.65 F0101;  
G1 X120.75 Y092.75 Z018.68 E000.59 F0101;  
G1 X120.75 Y117.75 Z018.68 E008.65 F0101;  
G1 X122.45 Y117.75 Z018.68 E000.59 F0101;  
G1 X122.45 Y092.75 Z018.68 E008.65 F0101;  
G1 X124.15 Y092.75 Z018.68 E000.59 F0101;  
G1 X124.15 Y117.75 Z018.68 E008.65 F0101;  
G1 X125.85 Y117.75 Z018.68 E000.59 F0101;  
G1 X125.85 Y092.75 Z018.68 E008.65 F0101;  
G1 X127.55 Y092.75 Z018.68 E000.59 F0101;  
G1 X127.55 Y117.75 Z018.68 E008.65 F0101;  
G1 X129.25 Y117.75 Z018.68 E000.59 F0101;  
G1 X129.25 Y092.75 Z018.68 E008.65 F0101;  
G1 X130.95 Y092.75 Z018.68 E000.59 F0101;  
G1 X130.95 Y117.75 Z018.68 E008.65 F0101;  
G1 X132.65 Y117.75 Z018.68 E000.59 F0101;  
G1 X132.65 Y092.75 Z018.68 E008.65 F0101;  
G1 X134.35 Y092.75 Z018.68 E000.59 F0101;  
G1 X134.35 Y117.75 Z018.68 E008.65 F0101;  
G1 X136.05 Y117.75 Z018.68 E000.59 F0101;  
G1 X136.05 Y092.75 Z018.68 E008.65 F0101;  
G1 X137.75 Y092.75 Z018.68 E000.59 F0101;  
G1 X137.50 Y118.00 Z019.84 E008.74 F0101;  
G1 X112.50 Y118.00 Z019.84 E008.65 F0101;  
G1 X112.50 Y116.30 Z019.84 E000.59 F0101;  
G1 X137.50 Y116.30 Z019.84 E008.65 F0101;  
G1 X137.50 Y114.60 Z019.84 E000.59 F0101;  
G1 X112.50 Y114.60 Z019.84 E008.65 F0101;  
G1 X112.50 Y112.90 Z019.84 E000.59 F0101;  
G1 X137.50 Y112.90 Z019.84 E008.65 F0101;  
G1 X137.50 Y111.20 Z019.84 E000.59 F0101;  
G1 X112.50 Y111.20 Z019.84 E008.65 F0101;  
G1 X112.50 Y109.50 Z019.84 E000.59 F0101;  
G1 X137.50 Y109.50 Z019.84 E008.65 F0101;  
G1 X137.50 Y107.80 Z019.84 E000.59 F0101;  
G1 X112.50 Y107.80 Z019.84 E008.65 F0101;  
G1 X112.50 Y106.10 Z019.84 E000.59 F0101;  
G1 X137.50 Y106.10 Z019.84 E008.65 F0101;  
G1 X137.50 Y104.40 Z019.84 E000.59 F0101;  
G1 X112.50 Y104.40 Z019.84 E008.65 F0101;  
G1 X112.50 Y102.70 Z019.84 E000.59 F0101;  
G1 X137.50 Y102.70 Z019.84 E008.65 F0101;  
G1 X137.50 Y101.00 Z019.84 E000.59 F0101;  
G1 X112.50 Y101.00 Z019.84 E008.65 F0101;  
G1 X112.50 Y099.30 Z019.84 E000.59 F0101;  
G1 X137.50 Y099.30 Z019.84 E008.65 F0101;  
G1 X137.50 Y097.60 Z019.84 E000.59 F0101;  
G1 X112.50 Y097.60 Z019.84 E008.65 F0101;  
G1 X112.50 Y095.90 Z019.84 E000.59 F0101;  
G1 X137.50 Y095.90 Z019.84 E008.65 F0101;  
G1 X137.50 Y094.20 Z019.84 E000.59 F0101;  
G1 X112.50 Y094.20 Z019.84 E008.65 F0101;  
G1 X112.50 Y092.50 Z019.84 E000.59 F0101;  
G1 X137.75 Y092.75 Z021.00 E008.74 F0101;  
G1 X137.75 Y117.75 Z021.00 E008.65 F0101;  
G1 X136.05 Y117.75 Z021.00 E000.59 F0101;  
G1 X136.05 Y092.75 Z021.00 E008.65 F0101;  
G1 X134.35 Y092.75 Z021.00 E000.59 F0101;  
G1 X134.35 Y117.75 Z021.00 E008.65 F0101;  
G1 X132.65 Y117.75 Z021.00 E000.59 F0101;  
G1 X132.65 Y092.75 Z021.00 E008.65 F0101;  
G1 X130.95 Y092.75 Z021.00 E000.59 F0101;  
G1 X130.95 Y117.75 Z021.00 E008.65 F0101;  
G1 X129.25 Y117.75 Z021.00 E000.59 F0101;  
G1 X129.25 Y092.75 Z021.00 E008.65 F0101;  
G1 X127.55 Y092.75 Z021.00 E000.59 F0101;  
G1 X127.55 Y117.75 Z021.00 E008.65 F0101;  
G1 X125.85 Y117.75 Z021.00 E000.59 F0101;  
G1 X125.85 Y092.75 Z021.00 E008.65 F0101;  
G1 X124.15 Y092.75 Z021.00 E000.59 F0101;  
G1 X124.15 Y117.75 Z021.00 E008.65 F0101;  
G1 X122.45 Y117.75 Z021.00 E000.59 F0101;  
G1 X122.45 Y092.75 Z021.00 E008.65 F0101;  
G1 X120.75 Y092.75 Z021.00 E000.59 F0101;  
G1 X120.75 Y117.75 Z021.00 E008.65 F0101;  
G1 X119.05 Y117.75 Z021.00 E000.59 F0101;  
G1 X119.05 Y092.75 Z021.00 E008.65 F0101;  
G1 X117.35 Y092.75 Z021.00 E000.59 F0101;  
G1 X117.35 Y117.75 Z021.00 E008.65 F0101;  
G1 X115.65 Y117.75 Z021.00 E000.59 F0101;  
G1 X115.65 Y092.75 Z021.00 E008.65 F0101;  
G1 X113.95 Y092.75 Z021.00 E000.59 F0101;  
G1 X113.95 Y117.75 Z021.00 E008.65 F0101;  
G1 X112.25 Y117.75 Z021.00 E000.59 F0101;  
G1 X112.50 Y092.50 Z022.16 E008.74 F0101;  
G1 X137.50 Y092.50 Z022.16 E008.65 F0101;  
G1 X137.50 Y094.20 Z022.16 E000.59 F0101;  
G1 X112.50 Y094.20 Z022.16 E008.65 F0101;  
G1 X112.50 Y095.90 Z022.16 E000.59 F0101;  
G1 X137.50 Y095.90 Z022.16 E008.65 F0101;  
G1 X137.50 Y097.60 Z022.16 E000.59 F0101;  
G1 X112.50 Y097.60 Z022.16 E008.65 F0101;  
G1 X112.50 Y099.30 Z022.16 E000.59 F0101;  
G1 X137.50 Y099.30 Z022.16 E008.65 F0101;  
G1 X137.50 Y101.00 Z022.16 E000.59 F0101;  
G1 X112.50 Y101.00 Z022.16 E008.65 F0101;  
G1 X112.50 Y102.70 Z022.16 E000.59 F0101;  
G1 X137.50 Y102.70 Z022.16 E008.65 F0101;  
G1 X137.50 Y104.40 Z022.16 E000.59 F0101;  
G1 X112.50 Y104.40 Z022.16 E008.65 F0101;  
G1 X112.50 Y106.10 Z022.16 E000.59 F0101;  
G1 X137.50 Y106.10 Z022.16 E008.65 F0101;  
G1 X137.50 Y107.80 Z022.16 E000.59 F0101;  
G1 X112.50 Y107.80 Z022.16 E008.65 F0101;  
G1 X112.50 Y109.50 Z022.16 E000.59 F0101;  
G1 X137.50 Y109.50 Z022.16 E008.65 F0101;  
G1 X137.50 Y111.20 Z022.16 E000.59 F0101;  
G1 X112.50 Y111.20 Z022.16 E008.65 F0101;  
G1 X112.50 Y112.90 Z022.16 E000.59 F0101;  
G1 X137.50 Y112.90 Z022.16 E008.65 F0101;  
G1 X137.50 Y114.60 Z022.16 E000.59 F0101;  
G1 X112.50 Y114.60 Z022.16 E008.65 F0101;  
G1 X112.50 Y116.30 Z022.16 E000.59 F0101;  
G1 X137.50 Y116.30 Z022.16 E008.65 F0101;  
G1 X137.50 Y118.00 Z022.16 E000.59 F0101;  
G1 X112.25 Y117.75 Z023.32 E008.74 F0101;  
G1 X112.25 Y092.75 Z023.32 E008.65 F0101;  
G1 X113.95 Y092.75 Z023.32 E000.59 F0101;  
G1 X113.95 Y117.75 Z023.32 E008.65 F0101;  
G1 X115.65 Y117.75 Z023.32 E000.59 F0101;  
G1 X115.65 Y092.75 Z023.32 E008.65 F0101;  
G1 X117.35 Y092.75 Z023.32 E000.59 F0101;  
G1 X117.35 Y117.75 Z023.32 E008.65 F0101;  
G1 X119.05 Y117.75 Z023.32 E000.59 F0101;  
G1 X119.05 Y092.75 Z023.32 E008.65 F0101;  
G1 X120.75 Y092.75 Z023.32 E000.59 F0101;  
G1 X120.75 Y117.75 Z023.32 E008.65 F0101;  
G1 X122.45 Y117.75 Z023.32 E000.59 F0101;  
G1 X122.45 Y092.75 Z023.32 E008.65 F0101;  
G1 X124.15 Y092.75 Z023.32 E000.59 F0101;  
G1 X124.15 Y117.75 Z023.32 E008.65 F0101;  
G1 X125.85 Y117.75 Z023.32 E000.59 F0101;  
G1 X125.85 Y092.75 Z023.32 E008.65 F0101;  
G1 X127.55 Y092.75 Z023.32 E000.59 F0101;  
G1 X127.55 Y117.75 Z023.32 E008.65 F0101;  
G1 X129.25 Y117.75 Z023.32 E000.59 F0101;  
G1 X129.25 Y092.75 Z023.32 E008.65 F0101;  
G1 X130.95 Y092.75 Z023.32 E000.59 F0101;  
G1 X130.95 Y117.75 Z023.32 E008.65 F0101;  
G1 X132.65 Y117.75 Z023.32 E000.59 F0101;  
G1 X132.65 Y092.75 Z023.32 E008.65 F0101;  
G1 X134.35 Y092.75 Z023.32 E000.59 F0101;  
G1 X134.35 Y117.75 Z023.32 E008.65 F0101;  
G1 X136.05 Y117.75 Z023.32 E000.59 F0101;  
G1 X136.05 Y092.75 Z023.32 E008.65 F0101;  
G1 X137.75 Y092.75 Z023.32 E000.59 F0101;  
G1 X137.50 Y118.00 Z024.48 E008.74 F0101;  
G1 X112.50 Y118.00 Z024.48 E008.65 F0101;  
G1 X112.50 Y116.30 Z024.48 E000.59 F0101;  
G1 X137.50 Y116.30 Z024.48 E008.65 F0101;  
G1 X137.50 Y114.60 Z024.48 E000.59 F0101;  
G1 X112.50 Y114.60 Z024.48 E008.65 F0101;  
G1 X112.50 Y112.90 Z024.48 E000.59 F0101;  
G1 X137.50 Y112.90 Z024.48 E008.65 F0101;  
G1 X137.50 Y111.20 Z024.48 E000.59 F0101;  
G1 X112.50 Y111.20 Z024.48 E008.65 F0101;  
G1 X112.50 Y109.50 Z024.48 E000.59 F0101;  
G1 X137.50 Y109.50 Z024.48 E008.65 F0101;  
G1 X137.50 Y107.80 Z024.48 E000.59 F0101;  
G1 X112.50 Y107.80 Z024.48 E008.65 F0101;  
G1 X112.50 Y106.10 Z024.48 E000.59 F0101;  
G1 X137.50 Y106.10 Z024.48 E008.65 F0101;  
G1 X137.50 Y104.40 Z024.48 E000.59 F0101;  
G1 X112.50 Y104.40 Z024.48 E008.65 F0101;  
G1 X112.50 Y102.70 Z024.48 E000.59 F0101;  
G1 X137.50 Y102.70 Z024.48 E008.65 F0101;  
G1 X137.50 Y101.00 Z024.48 E000.59 F0101;  
G1 X112.50 Y101.00 Z024.48 E008.65 F0101;  
G1 X112.50 Y099.30 Z024.48 E000.59 F0101;  
G1 X137.50 Y099.30 Z024.48 E008.65 F0101;  
G1 X137.50 Y097.60 Z024.48 E000.59 F0101;  
G1 X112.50 Y097.60 Z024.48 E008.65 F0101;  
G1 X112.50 Y095.90 Z024.48 E000.59 F0101;  
G1 X137.50 Y095.90 Z024.48 E008.65 F0101;  
G1 X137.50 Y094.20 Z024.48 E000.59 F0101;  
G1 X112.50 Y094.20 Z024.48 E008.65 F0101;  
G1 X112.50 Y092.50 Z024.48 E000.59 F0101;  
G1 X137.75 Y092.75 Z025.64 E008.74 F0101;  
G1 X137.75 Y117.75 Z025.64 E008.65 F0101;  
G1 X136.05 Y117.75 Z025.64 E000.59 F0101;  
G1 X136.05 Y092.75 Z025.64 E008.65 F0101;  
G1 X134.35 Y092.75 Z025.64 E000.59 F0101;  
G1 X134.35 Y117.75 Z025.64 E008.65 F0101;  
G1 X132.65 Y117.75 Z025.64 E000.59 F0101;  
G1 X132.65 Y092.75 Z025.64 E008.65 F0101;  
G1 X130.95 Y092.75 Z025.64 E000.59 F0101;  
G1 X130.95 Y117.75 Z025.64 E008.65 F0101;  
G1 X129.25 Y117.75 Z025.64 E000.59 F0101;  
G1 X129.25 Y092.75 Z025.64 E008.65 F0101;  
G1 X127.55 Y092.75 Z025.64 E000.59 F0101;  
G1 X127.55 Y117.75 Z025.64 E008.65 F0101;  
G1 X125.85 Y117.75 Z025.64 E000.59 F0101;  
G1 X125.85 Y092.75 Z025.64 E008.65 F0101;  
G1 X124.15 Y092.75 Z025.64 E000.59 F0101;  
G1 X124.15 Y117.75 Z025.64 E008.65 F0101;  
G1 X122.45 Y117.75 Z025.64 E000.59 F0101;  
G1 X122.45 Y092.75 Z025.64 E008.65 F0101;  
G1 X120.75 Y092.75 Z025.64 E000.59 F0101;  
G1 X120.75 Y117.75 Z025.64 E008.65 F0101;  
G1 X119.05 Y117.75 Z025.64 E000.59 F0101;  
G1 X119.05 Y092.75 Z025.64 E008.65 F0101;  
G1 X117.35 Y092.75 Z025.64 E000.59 F0101;  
G1 X117.35 Y117.75 Z025.64 E008.65 F0101;  
G1 X115.65 Y117.75 Z025.64 E000.59 F0101;  
G1 X115.65 Y092.75 Z025.64 E008.65 F0101;  
G1 X113.95 Y092.75 Z025.64 E000.59 F0101;  
G1 X113.95 Y117.75 Z025.64 E008.65 F0101;  
G1 X112.25 Y117.75 Z025.64 E000.59 F0101;  
G1 X112.50 Y092.50 Z026.80 E008.74 F0101;  
G1 X137.50 Y092.50 Z026.80 E008.65 F0101;  
G1 X137.50 Y094.20 Z026.80 E000.59 F0101;  
G1 X112.50 Y094.20 Z026.80 E008.65 F0101;  
G1 X112.50 Y095.90 Z026.80 E000.59 F0101;  
G1 X137.50 Y095.90 Z026.80 E008.65 F0101;  
G1 X137.50 Y097.60 Z026.80 E000.59 F0101;  
G1 X112.50 Y097.60 Z026.80 E008.65 F0101;  
G1 X112.50 Y099.30 Z026.80 E000.59 F0101;  
G1 X137.50 Y099.30 Z026.80 E008.65 F0101;  
G1 X137.50 Y101.00 Z026.80 E000.59 F0101;  
G1 X112.50 Y101.00 Z026.80 E008.65 F0101;  
G1 X112.50 Y102.70 Z026.80 E000.59 F0101;  
G1 X137.50 Y102.70 Z026.80 E008.65 F0101;  
G1 X137.50 Y104.40 Z026.80 E000.59 F0101;  
G1 X112.50 Y104.40 Z026.80 E008.65 F0101;  
G1 X112.50 Y106.10 Z026.80 E000.59 F0101;  
G1 X137.50 Y106.10 Z026.80 E008.65 F0101;  
G1 X137.50 Y107.80 Z026.80 E000.59 F0101;  
G1 X112.50 Y107.80 Z026.80 E008.65 F0101;  
G1 X112.50 Y109.50 Z026.80 E000.59 F0101;  
G1 X137.50 Y109.50 Z026.80 E008.65 F0101;  
G1 X137.50 Y111.20 Z026.80 E000.59 F0101;  
G1 X112.50 Y111.20 Z026.80 E008.65 F0101;  
G1 X112.50 Y112.90 Z026.80 E000.59 F0101;  
G1 X137.50 Y112.90 Z026.80 E008.65 F0101;  
G1 X137.50 Y114.60 Z026.80 E000.59 F0101;  
G1 X112.50 Y114.60 Z026.80 E008.65 F0101;  
G1 X112.50 Y116.30 Z026.80 E000.59 F0101;  
G1 X137.50 Y116.30 Z026.80 E008.65 F0101;  
G1 X137.50 Y118.00 Z026.80 E000.59 F0101;  
G1 X112.25 Y117.75 Z027.96 E008.74 F0101;  
G1 X112.25 Y092.75 Z027.96 E008.65 F0101;  
G1 X113.95 Y092.75 Z027.96 E000.59 F0101;  
G1 X113.95 Y117.75 Z027.96 E008.65 F0101;  
G1 X115.65 Y117.75 Z027.96 E000.59 F0101;  
G1 X115.65 Y092.75 Z027.96 E008.65 F0101;  
G1 X117.35 Y092.75 Z027.96 E000.59 F0101;  
G1 X117.35 Y117.75 Z027.96 E008.65 F0101;  
G1 X119.05 Y117.75 Z027.96 E000.59 F0101;  
G1 X119.05 Y092.75 Z027.96 E008.65 F0101;  
G1 X120.75 Y092.75 Z027.96 E000.59 F0101;  
G1 X120.75 Y117.75 Z027.96 E008.65 F0101;  
G1 X122.45 Y117.75 Z027.96 E000.59 F0101;  
G1 X122.45 Y092.75 Z027.96 E008.65 F0101;  
G1 X124.15 Y092.75 Z027.96 E000.59 F0101;  
G1 X124.15 Y117.75 Z027.96 E008.65 F0101;  
G1 X125.85 Y117.75 Z027.96 E000.59 F0101;  
G1 X125.85 Y092.75 Z027.96 E008.65 F0101;  
G1 X127.55 Y092.75 Z027.96 E000.59 F0101;  
G1 X127.55 Y117.75 Z027.96 E008.65 F0101;  
G1 X129.25 Y117.75 Z027.96 E000.59 F0101;  
G1 X129.25 Y092.75 Z027.96 E008.65 F0101;  
G1 X130.95 Y092.75 Z027.96 E000.59 F0101;  
G1 X130.95 Y117.75 Z027.96 E008.65 F0101;  
G1 X132.65 Y117.75 Z027.96 E000.59 F0101;  
G1 X132.65 Y092.75 Z027.96 E008.65 F0101;  
G1 X134.35 Y092.75 Z027.96 E000.59 F0101;  
G1 X134.35 Y117.75 Z027.96 E008.65 F0101;  
G1 X136.05 Y117.75 Z027.96 E000.59 F0101;  
G1 X136.05 Y092.75 Z027.96 E008.65 F0101;  
G1 X137.75 Y092.75 Z027.96 E000.59 F0101;  


G1 F10800.000 
G4 S20; Dwell for 20 Second(s) 
M104 S0 ; turn off temperature 
M140 S0 ; turn off heatbed 
M107 ; turn off fan 
G1 Z047.96 F5000 ; Move print head up 
M73 P91 R0 
G1 X0 Y190 F3000 ; home 
M900 K0 ; reset LA 
M84 ; disable motors 
M73 P100 R0 


;INDEX:

;Essential Cube Inputs: 
;    Trial = NinjaFlexTPU_Cube##.gcode 
;    gcode Path = ./gcode/Zig-Zag/NinjaFlexTPU_Cube##.gcode 
;    V* = 0.151 (S = 0.346)
;    H* = 9.0 
;    Feed Rate (Ė) = 35 mm/min
;    Die-Swell (α) = 1.0 
;    Long Move Length (L) = 25 mm
;    Short Move Length (λ) = 1.7 mm
;    Cube Height (h) = 25 mm
;    Z Increment (Δz) = 1.1600000000000001 mm
;    Layers In Cube = 22 layers
;    Layer Moves Offset = +0 moves
;    Thread Extrusion Rate (C) = 669.92 mm/min

;Cube Statistics: 
;    Nominal Volume = 15625.00 mm^3 
;    Nominal Cube Density = 0.59 g/cm^3 
;    Nominal Cube Density Ratio = 0.498 
;    Nominal Volume Ratio = 0.498 

;Essential General Inputs: 
;    Nozzle Temperature (Tn) = 240 °C 
;    Bed Temperature (Tb) = 50 °C 
;    Assumed Filament Density (ρ) = 1.19 g/cm^3 

;Optional General Inputs: 
;    Extrusion Multiplier = 1.00 (100%) 
;    Pre-Print Pause: False 
;    Skip Pre-Print Operations: False 
;    Offset Z = 0.00 mm 

;Hardware and Material Inputs: 
;    Filament Diameter = 1.75 mm 
;    Nozzle Diameter = 0.4 mm 
;    Print Bed Limits: 
;        X = 250 mm 
;        Y = 210 mm 
;        Z = 210 mm 

;Material and General Part Statistics: 
;    Length of Filament Fed = 3232.01 mm (3.23 m) 
;    Filament Volume = 7773.90 mm^3 
;    Average Volumetric Flow Rate = 84.18 mm^3/min (8.42e-05 liters/min) 
;    Estimated Printing Time = 1:32:20.594258 (92.34 minutes) 
;    Estimated Part Mass = 9.25 g 
;    Estimated Average Mass Flow Rate = 0.10 g/min 

;Notes: 
;    none 

;Generator Version: 2.6.2

